{
 "generated_at": "2026-07-15T07:14:44Z",
 "sources": [
  {
   "name": "CelesTrak",
   "url": "https://celestrak.org/NORAD/elements/",
   "license": "frei verfügbar; Attribution. Ursprünglich USSPACECOM/Space-Track."
  },
  {
   "name": "GCAT (J. McDowell, planet4589.org)",
   "url": "https://planet4589.org/space/gcat/",
   "license": "CC-BY 4.0"
  }
 ],
 "satellites": [
  {
   "norad": 54234,
   "name": "NOAA 21 (JPSS-2)",
   "intl": "2022-150A",
   "group": "weather",
   "gcat": {
    "class": "C",
    "category": "MET",
    "owner": "GSFC/NOAA",
    "state": "US"
   },
   "omm": {
    "OBJECT_NAME": "NOAA 21 (JPSS-2)",
    "OBJECT_ID": "2022-150A",
    "EPOCH": "2026-07-14T21:01:01.377696",
    "MEAN_MOTION": 14.19540991,
    "ECCENTRICITY": 0.0002825,
    "INCLINATION": 98.706,
    "RA_OF_ASC_NODE": 134.1999,
    "ARG_OF_PERICENTER": 105.1319,
    "MEAN_ANOMALY": 255.017,
    "EPHEMERIS_TYPE": 0,
    "CLASSIFICATION_TYPE": "U",
    "NORAD_CAT_ID": 54234,
    "ELEMENT_SET_NO": 999,
    "REV_AT_EPOCH": 19047,
    "BSTAR": 0.000019787515,
    "MEAN_MOTION_DOT": -2e-8,
    "MEAN_MOTION_DDOT": 0
   }
  },
  {
   "norad": 43619,
   "name": "NOVASAR 1",
   "intl": "2018-071B",
   "group": "sar",
   "gcat": {
    "class": "B",
    "category": "IMG",
    "owner": "SSTLA",
    "state": "UK"
   },
   "omm": {
    "OBJECT_NAME": "NOVASAR 1",
    "OBJECT_ID": "2018-071B",
    "EPOCH": "2026-07-14T22:35:26.147904",
    "MEAN_MOTION": 14.96272655,
    "ECCENTRICITY": 0.00019734,
    "INCLINATION": 97.5045,
    "RA_OF_ASC_NODE": 67.1194,
    "ARG_OF_PERICENTER": 70.1413,
    "MEAN_ANOMALY": 290.0022,
    "EPHEMERIS_TYPE": 0,
    "CLASSIFICATION_TYPE": "U",
    "NORAD_CAT_ID": 43619,
    "ELEMENT_SET_NO": 999,
    "REV_AT_EPOCH": 42708,
    "BSTAR": 0.000062296827,
    "MEAN_MOTION_DOT": 0.00000649,
    "MEAN_MOTION_DDOT": 0
   }
  },
  {
   "norad": 35931,
   "name": "OCEANSAT-2",
   "intl": "2009-051A",
   "group": "resource",
   "gcat": {
    "class": null,
    "category": null,
    "owner": null,
    "state": null
   },
   "omm": {
    "OBJECT_NAME": "OCEANSAT-2",
    "OBJECT_ID": "2009-051A",
    "EPOCH": "2026-07-15T00:10:59.907648",
    "MEAN_MOTION": 13.9965601,
    "ECCENTRICITY": 0.00173291,
    "INCLINATION": 98.232,
    "RA_OF_ASC_NODE": 180.0815,
    "ARG_OF_PERICENTER": 154.0205,
    "MEAN_ANOMALY": 206.1835,
    "EPHEMERIS_TYPE": 0,
    "CLASSIFICATION_TYPE": "U",
    "NORAD_CAT_ID": 35931,
    "ELEMENT_SET_NO": 999,
    "REV_AT_EPOCH": 88322,
    "BSTAR": -0.000042306971,
    "MEAN_MOTION_DOT": -9.9e-7,
    "MEAN_MOTION_DDOT": 0
   }
  },
  {
   "norad": 59065,
   "name": "PARS 1",
   "intl": "2024-039Q",
   "group": "resource",
   "gcat": {
    "class": "C",
    "category": "IMG",
    "owner": "IRSA",
    "state": "IR"
   },
   "omm": {
    "OBJECT_NAME": "PARS 1",
    "OBJECT_ID": "2024-039Q",
    "EPOCH": "2026-07-14T22:50:45.820608",
    "MEAN_MOTION": 15.46286466,
    "ECCENTRICITY": 0.00098034,
    "INCLINATION": 97.4836,
    "RA_OF_ASC_NODE": 177.7603,
    "ARG_OF_PERICENTER": 27.7024,
    "MEAN_ANOMALY": 332.4746,
    "EPHEMERIS_TYPE": 0,
    "CLASSIFICATION_TYPE": "U",
    "NORAD_CAT_ID": 59065,
    "ELEMENT_SET_NO": 999,
    "REV_AT_EPOCH": 13293,
    "BSTAR": 0.00013878583,
    "MEAN_MOTION_DOT": 0.00006752,
    "MEAN_MOTION_DDOT": 0
   }
  },
  {
   "norad": 41787,
   "name": "PATHFINDER 1",
   "intl": "2016-059E",
   "group": "resource",
   "gcat": {
    "class": null,
    "category": null,
    "owner": null,
    "state": null
   },
   "omm": {
    "OBJECT_NAME": "PATHFINDER 1",
    "OBJECT_ID": "2016-059E",
    "EPOCH": "2026-07-14T22:51:27.464544",
    "MEAN_MOTION": 14.67693013,
    "ECCENTRICITY": 0.00298009,
    "INCLINATION": 97.8177,
    "RA_OF_ASC_NODE": 193.9768,
    "ARG_OF_PERICENTER": 116.4385,
    "MEAN_ANOMALY": 243.9883,
    "EPHEMERIS_TYPE": 0,
    "CLASSIFICATION_TYPE": "U",
    "NORAD_CAT_ID": 41787,
    "ELEMENT_SET_NO": 999,
    "REV_AT_EPOCH": 52378,
    "BSTAR": 0.000056630587,
    "MEAN_MOTION_DOT": 0.00000278,
    "MEAN_MOTION_DDOT": 0
   }
  },
  {
   "norad": 43215,
   "name": "PAZ",
   "intl": "2018-020A",
   "group": "sar",
   "gcat": {
    "class": "D",
    "category": "IMG-R",
    "owner": "HISD",
    "state": "E"
   },
   "omm": {
    "OBJECT_NAME": "PAZ",
    "OBJECT_ID": "2018-020A",
    "EPOCH": "2026-07-14T21:40:55.570944",
    "MEAN_MOTION": 15.1915722,
    "ECCENTRICITY": 0.00016834,
    "INCLINATION": 97.4455,
    "RA_OF_ASC_NODE": 202.8955,
    "ARG_OF_PERICENTER": 89.8275,
    "MEAN_ANOMALY": 270.3152,
    "EPHEMERIS_TYPE": 0,
    "CLASSIFICATION_TYPE": "U",
    "NORAD_CAT_ID": 43215,
    "ELEMENT_SET_NO": 999,
    "REV_AT_EPOCH": 46521,
    "BSTAR": 0.000048363638,
    "MEAN_MOTION_DOT": 0.00000949,
    "MEAN_MOTION_DDOT": 0
   }
  },
  {
   "norad": 38012,
   "name": "PLEIADES 1A",
   "intl": "2011-076F",
   "group": "resource",
   "gcat": {
    "class": null,
    "category": "IMG",
    "owner": "CNES/DGA",
    "state": "F"
   },
   "omm": {
    "OBJECT_NAME": "PLEIADES 1A",
    "OBJECT_ID": "2011-076F",
    "EPOCH": "2026-07-14T23:33:09.840096",
    "MEAN_MOTION": 14.58545777,
    "ECCENTRICITY": 0.00016926,
    "INCLINATION": 98.1976,
    "RA_OF_ASC_NODE": 270.7094,
    "ARG_OF_PERICENTER": 79.894,
    "MEAN_ANOMALY": 358.8427,
    "EPHEMERIS_TYPE": 0,
    "CLASSIFICATION_TYPE": "U",
    "NORAD_CAT_ID": 38012,
    "ELEMENT_SET_NO": 999,
    "REV_AT_EPOCH": 77604,
    "BSTAR": -0.000016248503,
    "MEAN_MOTION_DOT": -0.00000121,
    "MEAN_MOTION_DDOT": 0
   }
  },
  {
   "norad": 39019,
   "name": "PLEIADES 1B",
   "intl": "2012-068A",
   "group": "resource",
   "gcat": {
    "class": null,
    "category": "IMG",
    "owner": "CNES",
    "state": "F"
   },
   "omm": {
    "OBJECT_NAME": "PLEIADES 1B",
    "OBJECT_ID": "2012-068A",
    "EPOCH": "2026-07-15T00:00:30.361824",
    "MEAN_MOTION": 14.58533997,
    "ECCENTRICITY": 0.00015863,
    "INCLINATION": 98.1948,
    "RA_OF_ASC_NODE": 270.6675,
    "ARG_OF_PERICENTER": 78.4689,
    "MEAN_ANOMALY": 281.6689,
    "EPHEMERIS_TYPE": 0,
    "CLASSIFICATION_TYPE": "U",
    "NORAD_CAT_ID": 39019,
    "ELEMENT_SET_NO": 999,
    "REV_AT_EPOCH": 72490,
    "BSTAR": 0.00002612666,
    "MEAN_MOTION_DOT": 7.6e-7,
    "MEAN_MOTION_DDOT": 0
   }
  },
  {
   "norad": 48268,
   "name": "PLEIADES NEO 3",
   "intl": "2021-034A",
   "group": "resource",
   "gcat": {
    "class": null,
    "category": "IMG",
    "owner": "ADSTI",
    "state": "F"
   },
   "omm": {
    "OBJECT_NAME": "PLEIADES NEO 3",
    "OBJECT_ID": "2021-034A",
    "EPOCH": "2026-07-14T22:35:41.730144",
    "MEAN_MOTION": 14.816654,
    "ECCENTRICITY": 0.00013058,
    "INCLINATION": 97.8946,
    "RA_OF_ASC_NODE": 270.3085,
    "ARG_OF_PERICENTER": 92.8825,
    "MEAN_ANOMALY": 267.2538,
    "EPHEMERIS_TYPE": 0,
    "CLASSIFICATION_TYPE": "U",
    "NORAD_CAT_ID": 48268,
    "ELEMENT_SET_NO": 999,
    "REV_AT_EPOCH": 28176,
    "BSTAR": -0.000082383833,
    "MEAN_MOTION_DOT": -0.000007,
    "MEAN_MOTION_DDOT": 0
   }
  },
  {
   "norad": 49070,
   "name": "PLEIADES NEO 4",
   "intl": "2021-073E",
   "group": "resource",
   "gcat": {
    "class": null,
    "category": "IMG",
    "owner": "ADSTI",
    "state": "F"
   },
   "omm": {
    "OBJECT_NAME": "PLEIADES NEO 4",
    "OBJECT_ID": "2021-073E",
    "EPOCH": "2026-07-14T21:47:03.963264",
    "MEAN_MOTION": 14.81673026,
    "ECCENTRICITY": 0.00013525,
    "INCLINATION": 97.8945,
    "RA_OF_ASC_NODE": 270.2713,
    "ARG_OF_PERICENTER": 92.99,
    "MEAN_ANOMALY": 267.1468,
    "EPHEMERIS_TYPE": 0,
    "CLASSIFICATION_TYPE": "U",
    "NORAD_CAT_ID": 49070,
    "ELEMENT_SET_NO": 999,
    "REV_AT_EPOCH": 26547,
    "BSTAR": 0.00011820978,
    "MEAN_MOTION_DOT": 0.00000878,
    "MEAN_MOTION_DDOT": 0
   }
  }
 ]
}
